STARLINK-3079
1 19433C 21104AB  21326.14723976 -.00824481  00000-0 -30513-2 0  3261
2 19433  53.2176  90.8222 0025301  65.3080 236.3762 15.87681486    19
